[{"OBJECT_NAME":"SL-8 R/B","OBJECT_ID":"1988-053B","EPOCH":"2026-04-15T14:17:31.208640","MEAN_MOTION":14.38938173,"ECCENTRICITY":0.0020989,"INCLINATION":74.0486,"RA_OF_ASC_NODE":44.4336,"ARG_OF_PERICENTER":218.2717,"MEAN_ANOMALY":314.8884,"EPHEMERIS_TYPE":0,"CLASSIFICATION_TYPE":"U","NORAD_CAT_ID":19257,"ELEMENT_SET_NO":999,"REV_AT_EPOCH":98190,"BSTAR":3.3951054e-5,"MEAN_MOTION_DOT":7.8e-7,"MEAN_MOTION_DDOT":0},{"OBJECT_NAME":"COSMOS 1975","OBJECT_ID":"1988-093A","EPOCH":"2026-04-15T09:21:19.531296","MEAN_MOTION":15.28550211,"ECCENTRICITY":0.00128414,"INCLINATION":82.5172,"RA_OF_ASC_NODE":80.8194,"ARG_OF_PERICENTER":49.0266,"MEAN_ANOMALY":311.2082,"EPHEMERIS_TYPE":0,"CLASSIFICATION_TYPE":"U","NORAD_CAT_ID":19573,"ELEMENT_SET_NO":999,"REV_AT_EPOCH":2501,"BSTAR":9.9908088e-5,"MEAN_MOTION_DOT":2.815e-5,"MEAN_MOTION_DDOT":0},{"OBJECT_NAME":"SL-14 R/B","OBJECT_ID":"1988-093B","EPOCH":"2026-04-15T05:51:46.695744","MEAN_MOTION":14.85697466,"ECCENTRICITY":0.0019094,"INCLINATION":82.5344,"RA_OF_ASC_NODE":7.738,"ARG_OF_PERICENTER":278.0246,"MEAN_ANOMALY":198.9932,"EPHEMERIS_TYPE":0,"CLASSIFICATION_TYPE":"U","NORAD_CAT_ID":19574,"ELEMENT_SET_NO":999,"REV_AT_EPOCH":644,"BSTAR":2.2203e-5,"MEAN_MOTION_DOT":2.17e-6,"MEAN_MOTION_DDOT":0},{"OBJECT_NAME":"SL-16 R/B","OBJECT_ID":"1988-102B","EPOCH":"2026-04-15T08:27:31.875264","MEAN_MOTION":14.16159994,"ECCENTRICITY":0.00160406,"INCLINATION":70.9989,"RA_OF_ASC_NODE":74.3509,"ARG_OF_PERICENTER":308.949,"MEAN_ANOMALY":51.0203,"EPHEMERIS_TYPE":0,"CLASSIFICATION_TYPE":"U","NORAD_CAT_ID":19650,"ELEMENT_SET_NO":999,"REV_AT_EPOCH":93208,"BSTAR":-3.2000002e-5,"MEAN_MOTION_DOT":-1.11e-6,"MEAN_MOTION_DDOT":0},{"OBJECT_NAME":"INTERCOSMOS 24","OBJECT_ID":"1989-080A","EPOCH":"2026-04-15T10:07:34.766688","MEAN_MOTION":12.59596735,"ECCENTRICITY":0.11872837,"INCLINATION":82.6025,"RA_OF_ASC_NODE":80.4785,"ARG_OF_PERICENTER":207.5045,"MEAN_ANOMALY":145.8104,"EPHEMERIS_TYPE":0,"CLASSIFICATION_TYPE":"U","NORAD_CAT_ID":20261,"ELEMENT_SET_NO":999,"REV_AT_EPOCH":67142,"BSTAR":7.4343711e-5,"MEAN_MOTION_DOT":2.63e-6,"MEAN_MOTION_DDOT":0},{"OBJECT_NAME":"SL-14 R/B","OBJECT_ID":"1989-080C","EPOCH":"2026-04-15T14:28:12.218880","MEAN_MOTION":12.50524448,"ECCENTRICITY":0.12309706,"INCLINATION":82.5925,"RA_OF_ASC_NODE":149.4989,"ARG_OF_PERICENTER":100.4197,"MEAN_ANOMALY":273.767,"EPHEMERIS_TYPE":0,"CLASSIFICATION_TYPE":"U","NORAD_CAT_ID":20262,"ELEMENT_SET_NO":999,"REV_AT_EPOCH":66476,"BSTAR":5.1756225e-5,"MEAN_MOTION_DOT":2.05e-6,"MEAN_MOTION_DDOT":0},{"OBJECT_NAME":"DELTA 1 R/B","OBJECT_ID":"1989-089B","EPOCH":"2026-04-15T10:52:51.600000","MEAN_MOTION":14.5069224,"ECCENTRICITY":0.00692534,"INCLINATION":97.0675,"RA_OF_ASC_NODE":307.0363,"ARG_OF_PERICENTER":7.6571,"MEAN_ANOMALY":352.5667,"EPHEMERIS_TYPE":0,"CLASSIFICATION_TYPE":"U","NORAD_CAT_ID":20323,"ELEMENT_SET_NO":999,"REV_AT_EPOCH":90106,"BSTAR":4.336494e-5,"MEAN_MOTION_DOT":1.4e-6,"MEAN_MOTION_DDOT":0},{"OBJECT_NAME":"ARIANE 40 R/B","OBJECT_ID":"1990-005H","EPOCH":"2026-04-15T03:46:10.333056","MEAN_MOTION":14.39894399,"ECCENTRICITY":0.00114049,"INCLINATION":98.3013,"RA_OF_ASC_NODE":164.7183,"ARG_OF_PERICENTER":95.6861,"MEAN_ANOMALY":264.5629,"EPHEMERIS_TYPE":0,"CLASSIFICATION_TYPE":"U","NORAD_CAT_ID":20443,"ELEMENT_SET_NO":999,"REV_AT_EPOCH":89805,"BSTAR":5.2325726e-5,"MEAN_MOTION_DOT":1.22e-6,"MEAN_MOTION_DDOT":0},{"OBJECT_NAME":"DELTA 2 R/B(1)","OBJECT_ID":"1990-008B","EPOCH":"2026-04-15T05:00:53.701632","MEAN_MOTION":15.60887773,"ECCENTRICITY":0.0076181,"INCLINATION":35.6029,"RA_OF_ASC_NODE":294.2882,"ARG_OF_PERICENTER":242.3609,"MEAN_ANOMALY":116.9379,"EPHEMERIS_TYPE":0,"CLASSIFICATION_TYPE":"U","NORAD_CAT_ID":20453,"ELEMENT_SET_NO":999,"REV_AT_EPOCH":93183,"BSTAR":0.00034106,"MEAN_MOTION_DOT":0.00034178,"MEAN_MOTION_DDOT":0},{"OBJECT_NAME":"COSMOS 2058","OBJECT_ID":"1990-010A","EPOCH":"2026-04-15T10:56:51.320256","MEAN_MOTION":15.11655151,"ECCENTRICITY":0.00089643,"INCLINATION":82.4726,"RA_OF_ASC_NODE":11.2049,"ARG_OF_PERICENTER":199.4518,"MEAN_ANOMALY":160.6371,"EPHEMERIS_TYPE":0,"CLASSIFICATION_TYPE":"U","NORAD_CAT_ID":20465,"ELEMENT_SET_NO":999,"REV_AT_EPOCH":94779,"BSTAR":7.2747615e-5,"MEAN_MOTION_DOT":1.267e-5,"MEAN_MOTION_DDOT":0},{"OBJECT_NAME":"SL-14 R/B","OBJECT_ID":"1990-010B","EPOCH":"2026-04-15T10:40:40.158336","MEAN_MOTION":14.83605161,"ECCENTRICITY":0.00199532,"INCLINATION":82.5026,"RA_OF_ASC_NODE":232.8584,"ARG_OF_PERICENTER":174.5265,"MEAN_ANOMALY":185.6172,"EPHEMERIS_TYPE":0,"CLASSIFICATION_TYPE":"U","NORAD_CAT_ID":20466,"ELEMENT_SET_NO":999,"REV_AT_EPOCH":93393,"BSTAR":2.7649184e-5,"MEAN_MOTION_DOT":2.53e-6,"MEAN_MOTION_DDOT":0},{"OBJECT_NAME":"SL-14 R/B","OBJECT_ID":"1990-018B","EPOCH":"2026-04-15T15:11:28.244256","MEAN_MOTION":14.8217963,"ECCENTRICITY":0.0015468,"INCLINATION":82.5242,"RA_OF_ASC_NODE":188.5706,"ARG_OF_PERICENTER":335.1413,"MEAN_ANOMALY":24.9054,"EPHEMERIS_TYPE":0,"CLASSIFICATION_TYPE":"U","NORAD_CAT_ID":20511,"ELEMENT_SET_NO":999,"REV_AT_EPOCH":92805,"BSTAR":2.2577292e-5,"MEAN_MOTION_DOT":2.04e-6,"MEAN_MOTION_DDOT":0},{"OBJECT_NAME":"HST","OBJECT_ID":"1990-037B","EPOCH":"2026-04-15T09:50:54.932064","MEAN_MOTION":15.30051403,"ECCENTRICITY":0.00022082,"INCLINATION":28.4729,"RA_OF_ASC_NODE":149.3915,"ARG_OF_PERICENTER":162.5991,"MEAN_ANOMALY":197.468,"EPHEMERIS_TYPE":0,"CLASSIFICATION_TYPE":"U","NORAD_CAT_ID":20580,"ELEMENT_SET_NO":999,"REV_AT_EPOCH":77894,"BSTAR":0.00010893685,"MEAN_MOTION_DOT":3.488e-5,"MEAN_MOTION_DDOT":0},{"OBJECT_NAME":"SL-16 R/B","OBJECT_ID":"1990-046B","EPOCH":"2026-04-15T14:21:29.162016","MEAN_MOTION":14.15016728,"ECCENTRICITY":0.00164933,"INCLINATION":70.9993,"RA_OF_ASC_NODE":220.3947,"ARG_OF_PERICENTER":251.5152,"MEAN_ANOMALY":108.4178,"EPHEMERIS_TYPE":0,"CLASSIFICATION_TYPE":"U","NORAD_CAT_ID":20625,"ELEMENT_SET_NO":999,"REV_AT_EPOCH":85361,"BSTAR":-0.00012564394,"MEAN_MOTION_DOT":-2.91e-6,"MEAN_MOTION_DDOT":0},{"OBJECT_NAME":"COSMOS 2084","OBJECT_ID":"1990-055A","EPOCH":"2026-04-15T12:18:34.125408","MEAN_MOTION":15.05867177,"ECCENTRICITY":0.00112297,"INCLINATION":62.7891,"RA_OF_ASC_NODE":209.9626,"ARG_OF_PERICENTER":203.9601,"MEAN_ANOMALY":156.0979,"EPHEMERIS_TYPE":0,"CLASSIFICATION_TYPE":"U","NORAD_CAT_ID":20663,"ELEMENT_SET_NO":999,"REV_AT_EPOCH":94186,"BSTAR":9.8814033e-5,"MEAN_MOTION_DOT":1.24e-5,"MEAN_MOTION_DDOT":0},{"OBJECT_NAME":"SL-6 R/B(2)","OBJECT_ID":"1990-055D","EPOCH":"2026-04-15T09:55:15.650112","MEAN_MOTION":15.03759914,"ECCENTRICITY":0.00307975,"INCLINATION":62.7805,"RA_OF_ASC_NODE":128.9487,"ARG_OF_PERICENTER":354.9327,"MEAN_ANOMALY":5.1456,"EPHEMERIS_TYPE":0,"CLASSIFICATION_TYPE":"U","NORAD_CAT_ID":20666,"ELEMENT_SET_NO":999,"REV_AT_EPOCH":94371,"BSTAR":7.2322846e-5,"MEAN_MOTION_DOT":8.02e-6,"MEAN_MOTION_DDOT":0},{"OBJECT_NAME":"SL-8 R/B","OBJECT_ID":"1990-078B","EPOCH":"2026-04-15T14:06:03.608064","MEAN_MOTION":14.90072278,"ECCENTRICITY":0.03566412,"INCLINATION":82.9055,"RA_OF_ASC_NODE":218.098,"ARG_OF_PERICENTER":249.3615,"MEAN_ANOMALY":106.9028,"EPHEMERIS_TYPE":0,"CLASSIFICATION_TYPE":"U","NORAD_CAT_ID":20775,"ELEMENT_SET_NO":999,"REV_AT_EPOCH":81479,"BSTAR":0.00026515072,"MEAN_MOTION_DOT":8.993e-5,"MEAN_MOTION_DDOT":0}]
