HST
1 20580U 90037B   26105.41035801  .00003488  00000+0  10894-3 0  9997
2 20580  28.4729 149.3915 0002208 162.5991 197.4680 15.30051403778948
SL-8 R/B
1 19257U 88053B   26105.59550010  .00000078  00000+0  33951-4 0  9996
2 19257  74.0486  44.4336 0020989 218.2717 314.8884 14.38938173981905
COSMOS 1975
1 19573U 88093A   26105.38980939  .00002815  00000+0  99908-4 0  9990
2 19573  82.5172  80.8194 0012841  49.0266 311.2082 15.28550211 25010
SL-14 R/B
1 19574U 88093B   26105.24429046  .00000217  00000+0  22203-4 0  9991
2 19574  82.5344   7.7380 0019094 278.0246 198.9932 14.85697466  6442
SL-16 R/B
1 19650U 88102B   26105.35245226 -.00000111  00000+0 -32000-4 0  9996
2 19650  70.9989  74.3509 0016040 308.9490  51.0203 14.16159994932089
INTERCOSMOS 24
1 20261U 89080A   26105.42193017  .00000263  00000+0  74344-4 0  9993
2 20261  82.6025  80.4785 1187283 207.5045 145.8104 12.59596735671426
SL-14 R/B
1 20262U 89080C   26105.60291920  .00000205  00000+0  51756-4 0  9994
2 20262  82.5925 149.4989 1230970 100.4197 273.7670 12.50524448664769
DELTA 1 R/B
1 20323U 89089B   26105.45337500  .00000140  00000+0  43365-4 0  9994
2 20323  97.0675 307.0363 0069253   7.6571 352.5667 14.50692240901062
ARIANE 40 R/B
1 20443U 90005H   26105.15706404  .00000122  00000+0  52326-4 0  9994
2 20443  98.3013 164.7183 0011404  95.6861 264.5629 14.39894399898057
DELTA 2 R/B(1)
1 20453U 90008B   26105.20895488  .00034178  00000+0  34106-3 0  9998
2 20453  35.6029 294.2882 0076181 242.3609 116.9379 15.60887773931837
COSMOS 2058
1 20465U 90010A   26105.45614954  .00001267  00000+0  72748-4 0  9996
2 20465  82.4726  11.2049 0008964 199.4518 160.6371 15.11655151947790
SL-14 R/B
1 20466U 90010B   26105.44490924  .00000253  00000+0  27649-4 0  9999
2 20466  82.5026 232.8584 0019953 174.5265 185.6172 14.83605161933934
SL-14 R/B
1 20511U 90018B   26105.63296579  .00000204  00000+0  22577-4 0  9990
2 20511  82.5242 188.5706 0015468 335.1413  24.9054 14.82179630928052
SL-16 R/B
1 20625U 90046B   26105.59825419 -.00000291  00000+0 -12564-3 0  9995
2 20625  70.9993 220.3947 0016493 251.5152 108.4178 14.15016728853612
COSMOS 2084
1 20663U 90055A   26105.51289497  .00001240  00000+0  98814-4 0  9995
2 20663  62.7891 209.9626 0011229 203.9601 156.0979 15.05867177941864
SL-6 R/B(2)
1 20666U 90055D   26105.41337558  .00000802  00000+0  72323-4 0  9999
2 20666  62.7805 128.9487 0030797 354.9327   5.1456 15.03759914943717
SL-8 R/B
1 20775U 90078B   26105.58754176  .00008993  00000+0  26515-3 0  9992
2 20775  82.9055 218.0980 0356641 249.3615 106.9028 14.90072278814790
